{
  "type": "FeatureCollection",
  "features": [
    {
      "type": "Feature",
      "properties": {
        "norad_id": 35884,
        "name": "COSMOS 2251 DEB",
        "group": "cosmos-2251-debris",
        "lat": 22.025358811019117,
        "lon": 162.7796456629181,
        "alt_km": 731.2328932615455,
        "timestamp": "2025-12-05T07:38:19.242162+00:00",
        "meta_object_name": "COSMOS 2251 DEB",
        "meta_object_id": "1993-036ATX",
        "meta_epoch": "2025-12-01T08:35:40.210656",
        "meta_mean_motion": 14.25555603,
        "meta_eccentricity": 0.01094526,
        "meta_inclination": 73.9914,
        "meta_ra_of_asc_node": 356.6148,
        "meta_arg_of_pericenter": 146.5236,
        "meta_mean_anomaly": 214.2894,
        "meta_ephemeris_type": 0,
        "meta_classification_type": "U",
        "meta_norad_cat_id": 35884,
        "meta_element_set_no": 999,
        "meta_rev_at_epoch": 22195,
        "meta_bstar": 0.0012758145,
        "meta_mean_motion_dot": 3.19e-05,
        "meta_mean_motion_ddot": 0,
        "tle_line1": "1 35884U 93036ATX 25335.35810429  .00003190  00000+0  12758-2 0  9996",
        "tle_line2": "2 35884  73.9914 356.6148 0109452 146.5236 214.2894 14.25555603221959"
      },
      "geometry": {
        "type": "Point",
        "coordinates": [
          162.7796456629181,
          22.025358811019117
        ]
      }
    },
    {
      "type": "Feature",
      "properties": {
        "norad_id": 35885,
        "name": "COSMOS 2251 DEB",
        "group": "cosmos-2251-debris",
        "lat": -10.215426425905482,
        "lon": -54.49538652161018,
        "alt_km": 758.4816630100013,
        "timestamp": "2025-12-05T07:38:19.242173+00:00",
        "meta_object_name": "COSMOS 2251 DEB",
        "meta_object_id": "1993-036ATY",
        "meta_epoch": "2025-12-01T06:48:48.094272",
        "meta_mean_motion": 14.37483132,
        "meta_eccentricity": 0.0022714,
        "meta_inclination": 74.0277,
        "meta_ra_of_asc_node": 315.8881,
        "meta_arg_of_pericenter": 39.4634,
        "meta_mean_anomaly": 320.8169,
        "meta_ephemeris_type": 0,
        "meta_classification_type": "U",
        "meta_norad_cat_id": 35885,
        "meta_element_set_no": 999,
        "meta_rev_at_epoch": 64851,
        "meta_bstar": 0.00036957,
        "meta_mean_motion_dot": 1.083e-05,
        "meta_mean_motion_ddot": 0,
        "tle_line1": "1 35885U 93036ATY 25335.28388998  .00001083  00000+0  36957-3 0  9997",
        "tle_line2": "2 35885  74.0277 315.8881 0022714  39.4634 320.8169 14.37483132648516"
      },
      "geometry": {
        "type": "Point",
        "coordinates": [
          -54.49538652161018,
          -10.215426425905482
        ]
      }
    },
    {
      "type": "Feature",
      "properties": {
        "norad_id": 35888,
        "name": "COSMOS 2251 DEB",
        "group": "cosmos-2251-debris",
        "lat": 65.82514563260074,
        "lon": 151.17008186156494,
        "alt_km": 664.3670174693007,
        "timestamp": "2025-12-05T07:38:19.242183+00:00",
        "meta_object_name": "COSMOS 2251 DEB",
        "meta_object_id": "1993-036AUB",
        "meta_epoch": "2025-12-03T20:34:04.412928",
        "meta_mean_motion": 14.58269247,
        "meta_eccentricity": 0.0048625,
        "meta_inclination": 74.0341,
        "meta_ra_of_asc_node": 13.576,
        "meta_arg_of_pericenter": 148.3598,
        "meta_mean_anomaly": 212.0506,
        "meta_ephemeris_type": 0,
        "meta_classification_type": "U",
        "meta_norad_cat_id": 35888,
        "meta_element_set_no": 999,
        "meta_rev_at_epoch": 86144,
        "meta_bstar": 0.00076242,
        "meta_mean_motion_dot": 3.553e-05,
        "meta_mean_motion_ddot": 0,
        "tle_line1": "1 35888U 93036AUB 25337.85699552  .00003553  00000+0  76242-3 0  9991",
        "tle_line2": "2 35888  74.0341  13.5760 0048625 148.3598 212.0506 14.58269247861445"
      },
      "geometry": {
        "type": "Point",
        "coordinates": [
          151.17008186156494,
          65.82514563260074
        ]
      }
    },
    {
      "type": "Feature",
      "properties": {
        "norad_id": 35890,
        "name": "COSMOS 2251 DEB",
        "group": "cosmos-2251-debris",
        "lat": 4.330263406982407,
        "lon": 75.64008173613702,
        "alt_km": 737.636636609669,
        "timestamp": "2025-12-05T07:38:19.242193+00:00",
        "meta_object_name": "COSMOS 2251 DEB",
        "meta_object_id": "1993-036AUD",
        "meta_epoch": "2025-12-04T01:10:55.994880",
        "meta_mean_motion": 14.5723152,
        "meta_eccentricity": 0.00534651,
        "meta_inclination": 73.9374,
        "meta_ra_of_asc_node": 259.3147,
        "meta_arg_of_pericenter": 25.2643,
        "meta_mean_anomaly": 335.1117,
        "meta_ephemeris_type": 0,
        "meta_classification_type": "U",
        "meta_norad_cat_id": 35890,
        "meta_element_set_no": 999,
        "meta_rev_at_epoch": 65024,
        "meta_bstar": 0.0043241391,
        "meta_mean_motion_dot": 0.00019954,
        "meta_mean_motion_ddot": 0,
        "tle_line1": "1 35890U 93036AUD 25338.04925920  .00019954  00000+0  43241-2 0  9991",
        "tle_line2": "2 35890  73.9374 259.3147 0053465  25.2643 335.1117 14.57231520650244"
      },
      "geometry": {
        "type": "Point",
        "coordinates": [
          75.64008173613702,
          4.330263406982407
        ]
      }
    },
    {
      "type": "Feature",
      "properties": {
        "norad_id": 35891,
        "name": "COSMOS 2251 DEB",
        "group": "cosmos-2251-debris",
        "lat": -35.490942361511934,
        "lon": -58.39869459507814,
        "alt_km": 445.86923240401666,
        "timestamp": "2025-12-05T07:38:19.242203+00:00",
        "meta_object_name": "COSMOS 2251 DEB",
        "meta_object_id": "1993-036AUE",
        "meta_epoch": "2025-12-04T15:01:20.364096",
        "meta_mean_motion": 15.32277929,
        "meta_eccentricity": 0.0045839,
        "meta_inclination": 73.9882,
        "meta_ra_of_asc_node": 111.2679,
        "meta_arg_of_pericenter": 242.1756,
        "meta_mean_anomaly": 117.4798,
        "meta_ephemeris_type": 0,
        "meta_classification_type": "U",
        "meta_norad_cat_id": 35891,
        "meta_element_set_no": 999,
        "meta_rev_at_epoch": 67096,
        "meta_bstar": 0.0026607,
        "meta_mean_motion_dot": 0.00086647,
        "meta_mean_motion_ddot": 0,
        "tle_line1": "1 35891U 93036AUE 25338.62593014  .00086647  00000+0  26607-2 0  9991",
        "tle_line2": "2 35891  73.9882 111.2679 0045839 242.1756 117.4798 15.32277929670960"
      },
      "geometry": {
        "type": "Point",
        "coordinates": [
          -58.39869459507814,
          -35.490942361511934
        ]
      }
    },
    {
      "type": "Feature",
      "properties": {
        "norad_id": 35895,
        "name": "COSMOS 2251 DEB",
        "group": "cosmos-2251-debris",
        "lat": 70.19091535268338,
        "lon": 53.10061064415132,
        "alt_km": 747.4655345600713,
        "timestamp": "2025-12-05T07:38:19.242213+00:00",
        "meta_object_name": "COSMOS 2251 DEB",
        "meta_object_id": "1993-036AUJ",
        "meta_epoch": "2025-11-28T10:48:22.739616",
        "meta_mean_motion": 14.01419981,
        "meta_eccentricity": 0.01996382,
        "meta_inclination": 74.0486,
        "meta_ra_of_asc_node": 12.4453,
        "meta_arg_of_pericenter": 114.4344,
        "meta_mean_anomaly": 247.7763,
        "meta_ephemeris_type": 0,
        "meta_classification_type": "U",
        "meta_norad_cat_id": 35895,
        "meta_element_set_no": 999,
        "meta_rev_at_epoch": 58812,
        "meta_bstar": 0.0013219318,
        "meta_mean_motion_dot": 2.352e-05,
        "meta_mean_motion_ddot": 0,
        "tle_line1": "1 35895U 93036AUJ 25332.45026319  .00002352  00000+0  13219-2 0  9995",
        "tle_line2": "2 35895  74.0486  12.4453 0199638 114.4344 247.7763 14.01419981588125"
      },
      "geometry": {
        "type": "Point",
        "coordinates": [
          53.10061064415132,
          70.19091535268338
        ]
      }
    },
    {
      "type": "Feature",
      "properties": {
        "norad_id": 35898,
        "name": "COSMOS 2251 DEB",
        "group": "cosmos-2251-debris",
        "lat": -21.48266959907826,
        "lon": -54.032922939159036,
        "alt_km": 616.3668914703712,
        "timestamp": "2025-12-05T07:38:19.242224+00:00",
        "meta_object_name": "COSMOS 2251 DEB",
        "meta_object_id": "1993-036AUM",
        "meta_epoch": "2025-12-04T04:28:31.920384",
        "meta_mean_motion": 14.94490528,
        "meta_eccentricity": 0.00791912,
        "meta_inclination": 73.9907,
        "meta_ra_of_asc_node": 314.7414,
        "meta_arg_of_pericenter": 100.6329,
        "meta_mean_anomaly": 271.1161,
        "meta_ephemeris_type": 0,
        "meta_classification_type": "U",
        "meta_norad_cat_id": 35898,
        "meta_element_set_no": 999,
        "meta_rev_at_epoch": 66682,
        "meta_bstar": 0.0012849069,
        "meta_mean_motion_dot": 0.00014754,
        "meta_mean_motion_ddot": 0,
        "tle_line1": "1 35898U 93036AUM 25338.18648056  .00014754  00000+0  12849-2 0  9999",
        "tle_line2": "2 35898  73.9907 314.7414 0079191 100.6329 271.1161 14.94490528666825"
      },
      "geometry": {
        "type": "Point",
        "coordinates": [
          -54.032922939159036,
          -21.48266959907826
        ]
      }
    }
  ]
}